QIANFAN-1               
1 60379U 24140A   25262.25909124  .00000071  00000+0  90986-4 0  9998
2 60379  88.9784 308.0367 0019746  99.1546 261.1840 13.50972719 55948
QIANFAN-2               
1 60380U 24140B   25262.28773234  .00000071  00000+0  91118-4 0  9992
2 60380  88.9770 307.8847 0014816  75.4004 284.8789 13.50964893 56000
QIANFAN-3               
1 60381U 24140C   25262.29601642  .00000075  00000+0  97840-4 0  9999
2 60381  88.9763 308.0227 0016096  86.0406 274.2585 13.50964980 55917
QIANFAN-4               
1 60382U 24140D   25261.60484996  .00000075  00000+0  96815-4 0  9996
2 60382  88.9787 307.9703 0015112  79.3936 280.8916 13.50971751 55940
QIANFAN-5               
1 60383U 24140E   25262.32075817  .00000074  00000+0  95750-4 0  9991
2 60383  88.9763 308.0459 0017420  95.6239 264.6899 13.50967966 55905
QIANFAN-6               
1 60384U 24140F   25262.34135293  .00000078  00000+0  10238-3 0  9990
2 60384  88.9788 307.7674 0015272  82.5113 277.7773 13.50963981 56109
QIANFAN-7               
1 60385U 24140G   25262.35288152  .00000396  00000+0  15508-3 0  9993
2 60385  88.9789 303.6495 0013215 325.9691  34.0654 14.27550809 58354
QIANFAN-8               
1 60386U 24140H   25262.27548431  .00000074  00000+0  95885-4 0  9994
2 60386  88.9791 308.0103 0018748  84.1581 276.1707 13.50967857 55941
